[{"OBJECT_NAME":"ONEWEB-0404","OBJECT_ID":"2021-132R","EPOCH":"2026-06-04T15:59:22.879392","MEAN_MOTION":13.11417337,"ECCENTRICITY":0.0002103,"INCLINATION":87.8908,"RA_OF_ASC_NODE":23.5582,"ARG_OF_PERICENTER":86.3606,"MEAN_ANOMALY":273.7763,"EPHEMERIS_TYPE":0,"CLASSIFICATION_TYPE":"U","NORAD_CAT_ID":50484,"ELEMENT_SET_NO":999,"REV_AT_EPOCH":21405,"BSTAR":-0.0016434000000000002,"MEAN_MOTION_DOT":-5.7e-06,"MEAN_MOTION_DDOT":0.0},{"OBJECT_NAME":"ONEWEB-0405","OBJECT_ID":"2021-132S","EPOCH":"2026-06-04T00:07:29.533152","MEAN_MOTION":13.18685745,"ECCENTRICITY":0.0001734,"INCLINATION":87.9169,"RA_OF_ASC_NODE":338.0625,"ARG_OF_PERICENTER":104.2848,"MEAN_ANOMALY":255.8477,"EPHEMERIS_TYPE":0,"CLASSIFICATION_TYPE":"U","NORAD_CAT_ID":50485,"ELEMENT_SET_NO":999,"REV_AT_EPOCH":22025,"BSTAR":4.6522000000000006e-05,"MEAN_MOTION_DOT":3.1e-07,"MEAN_MOTION_DDOT":0.0},{"OBJECT_NAME":"ONEWEB-0406","OBJECT_ID":"2021-132T","EPOCH":"2026-06-04T01:44:35.327040","MEAN_MOTION":13.18686695,"ECCENTRICITY":0.0002291,"INCLINATION":87.916,"RA_OF_ASC_NODE":338.0657,"ARG_OF_PERICENTER":102.2851,"MEAN_ANOMALY":257.8538,"EPHEMERIS_TYPE":0,"CLASSIFICATION_TYPE":"U","NORAD_CAT_ID":50486,"ELEMENT_SET_NO":999,"REV_AT_EPOCH":21989,"BSTAR":-0.00026959,"MEAN_MOTION_DOT":-9.3e-07,"MEAN_MOTION_DDOT":0.0},{"OBJECT_NAME":"ONEWEB-0407","OBJECT_ID":"2021-132U","EPOCH":"2026-06-04T01:34:53.392800","MEAN_MOTION":13.18686251,"ECCENTRICITY":0.0001615,"INCLINATION":87.9168,"RA_OF_ASC_NODE":338.0593,"ARG_OF_PERICENTER":86.6598,"MEAN_ANOMALY":273.4719,"EPHEMERIS_TYPE":0,"CLASSIFICATION_TYPE":"U","NORAD_CAT_ID":50487,"ELEMENT_SET_NO":999,"REV_AT_EPOCH":21983,"BSTAR":-6.393100000000001e-05,"MEAN_MOTION_DOT":-1.2e-07,"MEAN_MOTION_DDOT":0.0},{"OBJECT_NAME":"ONEWEB-0409","OBJECT_ID":"2021-132V","EPOCH":"2026-06-04T15:56:56.186016","MEAN_MOTION":13.11417508,"ECCENTRICITY":0.0002154,"INCLINATION":87.8897,"RA_OF_ASC_NODE":23.5481,"ARG_OF_PERICENTER":75.6004,"MEAN_ANOMALY":284.5362,"EPHEMERIS_TYPE":0,"CLASSIFICATION_TYPE":"U","NORAD_CAT_ID":50488,"ELEMENT_SET_NO":999,"REV_AT_EPOCH":21394,"BSTAR":-0.0012658,"MEAN_MOTION_DOT":-4.36e-06,"MEAN_MOTION_DDOT":0.0},{"OBJECT_NAME":"ONEWEB-0412","OBJECT_ID":"2021-132W","EPOCH":"2026-06-04T01:17:52.693440","MEAN_MOTION":13.18688583,"ECCENTRICITY":0.0001786,"INCLINATION":87.9167,"RA_OF_ASC_NODE":338.0704,"ARG_OF_PERICENTER":78.5594,"MEAN_ANOMALY":281.5739,"EPHEMERIS_TYPE":0,"CLASSIFICATION_TYPE":"U","NORAD_CAT_ID":50489,"ELEMENT_SET_NO":999,"REV_AT_EPOCH":21992,"BSTAR":-1.4635000000000001e-05,"MEAN_MOTION_DOT":7e-08,"MEAN_MOTION_DDOT":0.0},{"OBJECT_NAME":"ONEWEB-0413","OBJECT_ID":"2021-132X","EPOCH":"2026-06-04T01:25:08.726592","MEAN_MOTION":13.18680665,"ECCENTRICITY":0.0001563,"INCLINATION":87.915,"RA_OF_ASC_NODE":338.0689,"ARG_OF_PERICENTER":86.4138,"MEAN_ANOMALY":273.7173,"EPHEMERIS_TYPE":0,"CLASSIFICATION_TYPE":"U","NORAD_CAT_ID":50490,"ELEMENT_SET_NO":999,"REV_AT_EPOCH":21986,"BSTAR":0.00048207,"MEAN_MOTION_DOT":2.03e-06,"MEAN_MOTION_DDOT":0.0},{"OBJECT_NAME":"ONEWEB-0414","OBJECT_ID":"2021-132Y","EPOCH":"2026-06-04T01:03:18.972576","MEAN_MOTION":13.18684553,"ECCENTRICITY":0.0001918,"INCLINATION":87.9166,"RA_OF_ASC_NODE":338.0523,"ARG_OF_PERICENTER":84.9187,"MEAN_ANOMALY":275.2164,"EPHEMERIS_TYPE":0,"CLASSIFICATION_TYPE":"U","NORAD_CAT_ID":50491,"ELEMENT_SET_NO":999,"REV_AT_EPOCH":21989,"BSTAR":-2.0093000000000002e-05,"MEAN_MOTION_DOT":5e-08,"MEAN_MOTION_DDOT":0.0},{"OBJECT_NAME":"ONEWEB-0417","OBJECT_ID":"2021-132Z","EPOCH":"2026-06-04T01:15:27.290880","MEAN_MOTION":13.18684625,"ECCENTRICITY":0.0002051,"INCLINATION":87.9158,"RA_OF_ASC_NODE":338.0717,"ARG_OF_PERICENTER":93.3886,"MEAN_ANOMALY":266.7481,"EPHEMERIS_TYPE":0,"CLASSIFICATION_TYPE":"U","NORAD_CAT_ID":50492,"ELEMENT_SET_NO":999,"REV_AT_EPOCH":21987,"BSTAR":3.3255000000000006e-05,"MEAN_MOTION_DOT":2.6e-07,"MEAN_MOTION_DDOT":0.0},{"OBJECT_NAME":"ONEWEB-0418","OBJECT_ID":"2021-132AA","EPOCH":"2026-06-04T01:29:50.441568","MEAN_MOTION":13.1868611,"ECCENTRICITY":0.0002211,"INCLINATION":87.9161,"RA_OF_ASC_NODE":338.0675,"ARG_OF_PERICENTER":98.7097,"MEAN_ANOMALY":261.4286,"EPHEMERIS_TYPE":0,"CLASSIFICATION_TYPE":"U","NORAD_CAT_ID":50493,"ELEMENT_SET_NO":999,"REV_AT_EPOCH":21993,"BSTAR":-1.5176999999999999e-05,"MEAN_MOTION_DOT":7e-08,"MEAN_MOTION_DDOT":0.0},{"OBJECT_NAME":"ONEWEB-0419","OBJECT_ID":"2021-132AB","EPOCH":"2026-06-04T00:07:03.593280","MEAN_MOTION":13.18665998,"ECCENTRICITY":0.0001998,"INCLINATION":87.9174,"RA_OF_ASC_NODE":338.0818,"ARG_OF_PERICENTER":111.0199,"MEAN_ANOMALY":249.1147,"EPHEMERIS_TYPE":0,"CLASSIFICATION_TYPE":"U","NORAD_CAT_ID":50494,"ELEMENT_SET_NO":999,"REV_AT_EPOCH":21984,"BSTAR":0.00028433,"MEAN_MOTION_DOT":1.25e-06,"MEAN_MOTION_DDOT":0.0},{"OBJECT_NAME":"ONEWEB-0420","OBJECT_ID":"2021-132AC","EPOCH":"2026-06-04T01:05:44.614464","MEAN_MOTION":13.18684534,"ECCENTRICITY":0.0001641,"INCLINATION":87.9157,"RA_OF_ASC_NODE":338.0751,"ARG_OF_PERICENTER":92.5636,"MEAN_ANOMALY":267.5684,"EPHEMERIS_TYPE":0,"CLASSIFICATION_TYPE":"U","NORAD_CAT_ID":50495,"ELEMENT_SET_NO":999,"REV_AT_EPOCH":21984,"BSTAR":-5.9340000000000004e-05,"MEAN_MOTION_DOT":-1e-07,"MEAN_MOTION_DDOT":0.0},{"OBJECT_NAME":"ONEWEB-0421","OBJECT_ID":"2021-132AD","EPOCH":"2026-06-04T00:56:01.721184","MEAN_MOTION":13.1869599,"ECCENTRICITY":0.0002254,"INCLINATION":87.9168,"RA_OF_ASC_NODE":338.0705,"ARG_OF_PERICENTER":84.4536,"MEAN_ANOMALY":275.6854,"EPHEMERIS_TYPE":0,"CLASSIFICATION_TYPE":"U","NORAD_CAT_ID":50496,"ELEMENT_SET_NO":999,"REV_AT_EPOCH":21988,"BSTAR":0.00043246,"MEAN_MOTION_DOT":1.83e-06,"MEAN_MOTION_DDOT":0.0},{"OBJECT_NAME":"ONEWEB-0424","OBJECT_ID":"2021-132AE","EPOCH":"2026-06-04T01:49:27.023808","MEAN_MOTION":13.18688254,"ECCENTRICITY":0.0001901,"INCLINATION":87.9166,"RA_OF_ASC_NODE":338.063,"ARG_OF_PERICENTER":108.0579,"MEAN_ANOMALY":252.076,"EPHEMERIS_TYPE":0,"CLASSIFICATION_TYPE":"U","NORAD_CAT_ID":50497,"ELEMENT_SET_NO":999,"REV_AT_EPOCH":21991,"BSTAR":0.00015641,"MEAN_MOTION_DOT":7.5e-07,"MEAN_MOTION_DDOT":0.0},{"OBJECT_NAME":"ONEWEB-0426","OBJECT_ID":"2021-132AF","EPOCH":"2026-06-04T00:49:59.274912","MEAN_MOTION":13.18687861,"ECCENTRICITY":0.0002504,"INCLINATION":87.9166,"RA_OF_ASC_NODE":338.0631,"ARG_OF_PERICENTER":83.4681,"MEAN_ANOMALY":276.6736,"EPHEMERIS_TYPE":0,"CLASSIFICATION_TYPE":"U","NORAD_CAT_ID":50498,"ELEMENT_SET_NO":999,"REV_AT_EPOCH":21985,"BSTAR":-4.1545e-05,"MEAN_MOTION_DOT":-3e-08,"MEAN_MOTION_DDOT":0.0},{"OBJECT_NAME":"ONEWEB-0427","OBJECT_ID":"2021-132AG","EPOCH":"2026-06-03T13:02:11.215104","MEAN_MOTION":13.18688125,"ECCENTRICITY":0.0002081,"INCLINATION":87.9167,"RA_OF_ASC_NODE":338.1493,"ARG_OF_PERICENTER":91.7524,"MEAN_ANOMALY":268.3847,"EPHEMERIS_TYPE":0,"CLASSIFICATION_TYPE":"U","NORAD_CAT_ID":50499,"ELEMENT_SET_NO":999,"REV_AT_EPOCH":21981,"BSTAR":0.00026495999999999996,"MEAN_MOTION_DOT":1.17e-06,"MEAN_MOTION_DDOT":0.0}]