ONEWEB-0404             
1 50484U 21132R   26155.66623703 -.00000570  00000+0 -16434-2 0  9995
2 50484  87.8908  23.5582 0002103  86.3606 273.7763 13.11417337214051
ONEWEB-0405             
1 50485U 21132S   26155.00520293  .00000031  00000+0  46522-4 0  9997
2 50485  87.9169 338.0625 0001734 104.2848 255.8477 13.18685745220250
ONEWEB-0406             
1 50486U 21132T   26155.07263110 -.00000093  00000+0 -26959-3 0  9998
2 50486  87.9160 338.0657 0002291 102.2851 257.8538 13.18686695219891
ONEWEB-0407             
1 50487U 21132U   26155.06589575 -.00000012  00000+0 -63931-4 0  9997
2 50487  87.9168 338.0593 0001615  86.6598 273.4719 13.18686251219838
ONEWEB-0409             
1 50488U 21132V   26155.66453919 -.00000436  00000+0 -12658-2 0  9994
2 50488  87.8897  23.5481 0002154  75.6004 284.5362 13.11417508213941
ONEWEB-0412             
1 50489U 21132W   26155.05408210  .00000007  00000+0 -14635-4 0  9994
2 50489  87.9167 338.0704 0001786  78.5594 281.5739 13.18688583219920
ONEWEB-0413             
1 50490U 21132X   26155.05912878  .00000203  00000+0  48207-3 0  9994
2 50490  87.9150 338.0689 0001563  86.4138 273.7173 13.18680665219862
ONEWEB-0414             
1 50491U 21132Y   26155.04396959  .00000005  00000+0 -20093-4 0  9995
2 50491  87.9166 338.0523 0001918  84.9187 275.2164 13.18684553219898
ONEWEB-0417             
1 50492U 21132Z   26155.05239920  .00000026  00000+0  33255-4 0  9997
2 50492  87.9158 338.0717 0002051  93.3886 266.7481 13.18684625219879
ONEWEB-0418             
1 50493U 21132AA  26155.06238937  .00000007  00000+0 -15177-4 0  9999
2 50493  87.9161 338.0675 0002211  98.7097 261.4286 13.18686110219931
ONEWEB-0419             
1 50494U 21132AB  26155.00490270  .00000125  00000+0  28433-3 0  9992
2 50494  87.9174 338.0818 0001998 111.0199 249.1147 13.18665998219848
ONEWEB-0420             
1 50495U 21132AC  26155.04565526 -.00000010  00000+0 -59340-4 0  9991
2 50495  87.9157 338.0751 0001641  92.5636 267.5684 13.18684534219847
ONEWEB-0421             
1 50496U 21132AD  26155.03890881  .00000183  00000+0  43246-3 0  9992
2 50496  87.9168 338.0705 0002254  84.4536 275.6854 13.18695990219880
ONEWEB-0424             
1 50497U 21132AE  26155.07600722  .00000075  00000+0  15641-3 0  9998
2 50497  87.9166 338.0630 0001901 108.0579 252.0760 13.18688254219918
ONEWEB-0426             
1 50498U 21132AF  26155.03471383 -.00000003  00000+0 -41545-4 0  9990
2 50498  87.9166 338.0631 0002504  83.4681 276.6736 13.18687861219851
ONEWEB-0427             
1 50499U 21132AG  26154.54318536  .00000117  00000+0  26496-3 0  9997
2 50499  87.9167 338.1493 0002081  91.7524 268.3847 13.18688125219819
